CCSDS_OMM_VERS = 2.0
CREATION_DATE  = 
ORIGINATOR     = 

OBJECT_NAME    = STARLINK-35893
OBJECT_ID      = 2025-268J
CENTER_NAME    = EARTH
REF_FRAME      = TEME
TIME_SYSTEM    = UTC
MEAN_ELEMENT_THEORY = SGP/SGP4

EPOCH          = 2025-12-26T18:00:02.998944
MEAN_MOTION    = 15.43936504
ECCENTRICITY   = .0001476
INCLINATION    = 43.0005
RA_OF_ASC_NODE = 39.0383
ARG_OF_PERICENTER = 281.5382
MEAN_ANOMALY   = 91.1027

EPHEMERIS_TYPE = 0
CLASSIFICATION_TYPE = U
NORAD_CAT_ID   = 66565
ELEMENT_SET_NO = 999
REV_AT_EPOCH   = 598
BSTAR          = -.48957E-1
MEAN_MOTION_DOT = -.2028794E-1
MEAN_MOTION_DDOT = 0

CCSDS_OMM_VERS = 2.0
CREATION_DATE  = 
ORIGINATOR     = 

OBJECT_NAME    = STARLINK-35871
OBJECT_ID      = 2025-268K
CENTER_NAME    = EARTH
REF_FRAME      = TEME
TIME_SYSTEM    = UTC
MEAN_ELEMENT_THEORY = SGP/SGP4

EPOCH          = 2025-12-26T18:00:02.998944
MEAN_MOTION    = 15.44470341
ECCENTRICITY   = .0001502
INCLINATION    = 43.0006
RA_OF_ASC_NODE = 39.0209
ARG_OF_PERICENTER = 282.2914
MEAN_ANOMALY   = 97.4527

EPHEMERIS_TYPE = 0
CLASSIFICATION_TYPE = U
NORAD_CAT_ID   = 66566
ELEMENT_SET_NO = 999
REV_AT_EPOCH   = 604
BSTAR          = -.48277E-1
MEAN_MOTION_DOT = -.2036658E-1
MEAN_MOTION_DDOT = 0

CCSDS_OMM_VERS = 2.0
CREATION_DATE  = 
ORIGINATOR     = 

OBJECT_NAME    = STARLINK-35825
OBJECT_ID      = 2025-268L
CENTER_NAME    = EARTH
REF_FRAME      = TEME
TIME_SYSTEM    = UTC
MEAN_ELEMENT_THEORY = SGP/SGP4

EPOCH          = 2025-12-24T05:35:52.806912
MEAN_MOTION    = 15.56426808
ECCENTRICITY   = .00033868
INCLINATION    = 43.0005
RA_OF_ASC_NODE = 53.7242
ARG_OF_PERICENTER = 293.6521
MEAN_ANOMALY   = 66.3986

EPHEMERIS_TYPE = 0
CLASSIFICATION_TYPE = U
NORAD_CAT_ID   = 66567
ELEMENT_SET_NO = 999
REV_AT_EPOCH   = 641
BSTAR          = .17686293E-2
MEAN_MOTION_DOT = .130148E-2
MEAN_MOTION_DDOT = 0

CCSDS_OMM_VERS = 2.0
CREATION_DATE  = 
ORIGINATOR     = 

OBJECT_NAME    = STARLINK-35803
OBJECT_ID      = 2025-268M
CENTER_NAME    = EARTH
REF_FRAME      = TEME
TIME_SYSTEM    = UTC
MEAN_ELEMENT_THEORY = SGP/SGP4

EPOCH          = 2025-12-26T18:00:02.998944
MEAN_MOTION    = 15.46662899
ECCENTRICITY   = .0001438
INCLINATION    = 43.0003
RA_OF_ASC_NODE = 39.0359
ARG_OF_PERICENTER = 281.8420
MEAN_ANOMALY   = 91.3032

EPHEMERIS_TYPE = 0
CLASSIFICATION_TYPE = U
NORAD_CAT_ID   = 66568
ELEMENT_SET_NO = 999
REV_AT_EPOCH   = 598
BSTAR          = -.38053E-1
MEAN_MOTION_DOT = -.1731968E-1
MEAN_MOTION_DDOT = 0

CCSDS_OMM_VERS = 2.0
CREATION_DATE  = 
ORIGINATOR     = 

OBJECT_NAME    = STARLINK-35835
OBJECT_ID      = 2025-268N
CENTER_NAME    = EARTH
REF_FRAME      = TEME
TIME_SYSTEM    = UTC
MEAN_ELEMENT_THEORY = SGP/SGP4

EPOCH          = 2025-12-26T18:00:02.998944
MEAN_MOTION    = 15.46557103
ECCENTRICITY   = .0001433
INCLINATION    = 43.0000
RA_OF_ASC_NODE = 38.9618
ARG_OF_PERICENTER = 275.2863
MEAN_ANOMALY   = 128.4130

EPHEMERIS_TYPE = 0
CLASSIFICATION_TYPE = U
NORAD_CAT_ID   = 66569
ELEMENT_SET_NO = 999
REV_AT_EPOCH   = 604
BSTAR          = -.4577E-1
MEAN_MOTION_DOT = -.2071289E-1
MEAN_MOTION_DDOT = 0

CCSDS_OMM_VERS = 2.0
CREATION_DATE  = 
ORIGINATOR     = 

OBJECT_NAME    = STARLINK-35834
OBJECT_ID      = 2025-268P
CENTER_NAME    = EARTH
REF_FRAME      = TEME
TIME_SYSTEM    = UTC
MEAN_ELEMENT_THEORY = SGP/SGP4

EPOCH          = 2025-12-26T18:00:02.998944
MEAN_MOTION    = 15.31848048
ECCENTRICITY   = .0001212
INCLINATION    = 43.0014
RA_OF_ASC_NODE = 39.4496
ARG_OF_PERICENTER = 290.0079
MEAN_ANOMALY   = 273.2764

EPHEMERIS_TYPE = 0
CLASSIFICATION_TYPE = U
NORAD_CAT_ID   = 66570
ELEMENT_SET_NO = 999
REV_AT_EPOCH   = 598
BSTAR          = -.71808E-1
MEAN_MOTION_DOT = -.2036129E-1
MEAN_MOTION_DDOT = 0

CCSDS_OMM_VERS = 2.0
CREATION_DATE  = 
ORIGINATOR     = 

OBJECT_NAME    = STARLINK-35836
OBJECT_ID      = 2025-268Q
CENTER_NAME    = EARTH
REF_FRAME      = TEME
TIME_SYSTEM    = UTC
MEAN_ELEMENT_THEORY = SGP/SGP4

EPOCH          = 2025-12-26T18:00:02.998944
MEAN_MOTION    = 15.32688485
ECCENTRICITY   = .0001155
INCLINATION    = 43.0013
RA_OF_ASC_NODE = 39.4062
ARG_OF_PERICENTER = 288.0494
MEAN_ANOMALY   = 293.3235

EPHEMERIS_TYPE = 0
CLASSIFICATION_TYPE = U
NORAD_CAT_ID   = 66571
ELEMENT_SET_NO = 999
REV_AT_EPOCH   = 609
BSTAR          = -.70175E-1
MEAN_MOTION_DOT = -.2042778E-1
MEAN_MOTION_DDOT = 0

CCSDS_OMM_VERS = 2.0
CREATION_DATE  = 
ORIGINATOR     = 

OBJECT_NAME    = STARLINK-35870
OBJECT_ID      = 2025-268R
CENTER_NAME    = EARTH
REF_FRAME      = TEME
TIME_SYSTEM    = UTC
MEAN_ELEMENT_THEORY = SGP/SGP4

EPOCH          = 2025-12-26T18:00:02.998944
MEAN_MOTION    = 15.34138788
ECCENTRICITY   = .0001097
INCLINATION    = 43.0002
RA_OF_ASC_NODE = 39.3382
ARG_OF_PERICENTER = 270.8884
MEAN_ANOMALY   = 339.0975

EPHEMERIS_TYPE = 0
CLASSIFICATION_TYPE = U
NORAD_CAT_ID   = 66572
ELEMENT_SET_NO = 999
REV_AT_EPOCH   = 609
BSTAR          = -.66793E-1
MEAN_MOTION_DOT = -.2036954E-1
MEAN_MOTION_DDOT = 0

CCSDS_OMM_VERS = 2.0
CREATION_DATE  = 
ORIGINATOR     = 

OBJECT_NAME    = STARLINK-35650
OBJECT_ID      = 2025-268S
CENTER_NAME    = EARTH
REF_FRAME      = TEME
TIME_SYSTEM    = UTC
MEAN_ELEMENT_THEORY = SGP/SGP4

EPOCH          = 2025-12-26T18:00:02.998944
MEAN_MOTION    = 15.34975537
ECCENTRICITY   = .0001089
INCLINATION    = 43.0011
RA_OF_ASC_NODE = 39.2968
ARG_OF_PERICENTER = 268.2121
MEAN_ANOMALY   = 358.3314

EPHEMERIS_TYPE = 0
CLASSIFICATION_TYPE = U
NORAD_CAT_ID   = 66573
ELEMENT_SET_NO = 999
REV_AT_EPOCH   = 592
BSTAR          = -.64967E-1
MEAN_MOTION_DOT = -.2035408E-1
MEAN_MOTION_DDOT = 0

CCSDS_OMM_VERS = 2.0
CREATION_DATE  = 
ORIGINATOR     = 

OBJECT_NAME    = STARLINK-35812
OBJECT_ID      = 2025-268T
CENTER_NAME    = EARTH
REF_FRAME      = TEME
TIME_SYSTEM    = UTC
MEAN_ELEMENT_THEORY = SGP/SGP4

EPOCH          = 2025-12-26T18:00:02.998944
MEAN_MOTION    = 15.35811030
ECCENTRICITY   = .0001033
INCLINATION    = 43.0000
RA_OF_ASC_NODE = 39.2578
ARG_OF_PERICENTER = 262.4969
MEAN_ANOMALY   = 20.0446

EPHEMERIS_TYPE = 0
CLASSIFICATION_TYPE = U
NORAD_CAT_ID   = 66574
ELEMENT_SET_NO = 999
REV_AT_EPOCH   = 604
BSTAR          = -.63283E-1
MEAN_MOTION_DOT = -.2003098E-1
MEAN_MOTION_DDOT = 0

CCSDS_OMM_VERS = 2.0
CREATION_DATE  = 
ORIGINATOR     = 

OBJECT_NAME    = STARLINK-35810
OBJECT_ID      = 2025-268U
CENTER_NAME    = EARTH
REF_FRAME      = TEME
TIME_SYSTEM    = UTC
MEAN_ELEMENT_THEORY = SGP/SGP4

EPOCH          = 2025-12-26T18:00:02.998944
MEAN_MOTION    = 15.36649211
ECCENTRICITY   = .000116
INCLINATION    = 43.0008
RA_OF_ASC_NODE = 39.2204
ARG_OF_PERICENTER = 262.7562
MEAN_ANOMALY   = 35.2198

EPHEMERIS_TYPE = 0
CLASSIFICATION_TYPE = U
NORAD_CAT_ID   = 66575
ELEMENT_SET_NO = 999
REV_AT_EPOCH   = 604
BSTAR          = -.61592E-1
MEAN_MOTION_DOT = -.2003486E-1
MEAN_MOTION_DDOT = 0

CCSDS_OMM_VERS = 2.0
CREATION_DATE  = 
ORIGINATOR     = 

OBJECT_NAME    = STARLINK-35814
OBJECT_ID      = 2025-268V
CENTER_NAME    = EARTH
REF_FRAME      = TEME
TIME_SYSTEM    = UTC
MEAN_ELEMENT_THEORY = SGP/SGP4

EPOCH          = 2025-12-26T18:00:02.998944
MEAN_MOTION    = 15.37492583
ECCENTRICITY   = .0001125
INCLINATION    = 43.0004
RA_OF_ASC_NODE = 39.1836
ARG_OF_PERICENTER = 263.5774
MEAN_ANOMALY   = 49.2740

EPHEMERIS_TYPE = 0
CLASSIFICATION_TYPE = U
NORAD_CAT_ID   = 66576
ELEMENT_SET_NO = 999
REV_AT_EPOCH   = 604
BSTAR          = -.60623E-1
MEAN_MOTION_DOT = -.2024467E-1
MEAN_MOTION_DDOT = 0

