STARLINK-35893          
1 66565U 25268J   25360.75003471 -.02028794  00000+0 -48957-1 0  9991
2 66565  43.0005  39.0383 0001476 281.5382  91.1027 15.43936504  5987
STARLINK-35871          
1 66566U 25268K   25360.75003471 -.02036658  00000+0 -48277-1 0  9995
2 66566  43.0006  39.0209 0001502 282.2914  97.4527 15.44470341  6040
STARLINK-35825          
1 66567U 25268L   25358.23325008  .00130148  00000+0  17686-2 0  9995
2 66567  43.0005  53.7242 0003386 293.6521  66.3986 15.56426808  6419
STARLINK-35803          
1 66568U 25268M   25360.75003471 -.01731968  00000+0 -38053-1 0  9993
2 66568  43.0003  39.0359 0001438 281.8420  91.3032 15.46662899  5989
STARLINK-35835          
1 66569U 25268N   25360.75003471 -.02071289  00000+0 -45770-1 0  9992
2 66569  43.0000  38.9618 0001433 275.2863 128.4130 15.46557103  6046
STARLINK-35834          
1 66570U 25268P   25360.75003471 -.02036129  00000+0 -71808-1 0  9999
2 66570  43.0014  39.4496 0001212 290.0079 273.2764 15.31848048  5981
STARLINK-35836          
1 66571U 25268Q   25360.75003471 -.02042778  00000+0 -70175-1 0  9993
2 66571  43.0013  39.4062 0001155 288.0494 293.3235 15.32688485  6091
STARLINK-35870          
1 66572U 25268R   25360.75003471 -.02036954  00000+0 -66793-1 0  9994
2 66572  43.0002  39.3382 0001097 270.8884 339.0975 15.34138788  6098
STARLINK-35650          
1 66573U 25268S   25360.75003471 -.02035408  00000+0 -64967-1 0  9999
2 66573  43.0011  39.2968 0001089 268.2121 358.3314 15.34975537  5927
STARLINK-35812          
1 66574U 25268T   25360.75003471 -.02003098  00000+0 -63283-1 0  9990
2 66574  43.0000  39.2578 0001033 262.4969  20.0446 15.35811030  6049
STARLINK-35810          
1 66575U 25268U   25360.75003471 -.02003486  00000+0 -61592-1 0  9993
2 66575  43.0008  39.2204 0001160 262.7562  35.2198 15.36649211  6040
STARLINK-35814          
1 66576U 25268V   25360.75003471 -.02024467  00000+0 -60623-1 0  9990
2 66576  43.0004  39.1836 0001125 263.5774  49.2740 15.37492583  6049
